BEIDOU-2 IGSO-1 (C06)   
1 36828U 10036A   23316.40499596 -.00000029  00000+0  00000+0 0  9998
2 36828  54.2336 171.5417 0037769 190.8725 301.6370  1.00290844 48709
BEIDOU-2 G4 (C04)       
1 37210U 10057A   23316.61194071 -.00000087  00000+0  00000+0 0  9994
2 37210   1.3323  63.7429 0007692 174.2069 193.8659  1.00271418 47793
BEIDOU-2 IGSO-2 (C07)   
1 37256U 10068A   23316.23812419 -.00000210  00000+0  00000+0 0  9995
2 37256  49.2877 283.4722 0030613 214.7567 106.0932  1.00261522 47286
BEIDOU-2 IGSO-3 (C08)   
1 37384U 11013A   23316.24353391 -.00000196  00000+0  00000+0 0  9991
2 37384  61.0375  49.2298 0028185 180.7260  16.0335  1.00264258 46153
BEIDOU-2 IGSO-4 (C09)   
1 37763U 11038A   23316.33714840  .00000064  00000+0  00000+0 0  9992
2 37763  54.5068 174.0980 0111952 227.1755 225.2149  1.00260394 45147
BEIDOU-2 IGSO-5 (C10)   
1 37948U 11073A   23316.37132649 -.00000152  00000+0  00000+0 0  9990
2 37948  49.4137 283.1418 0093671 221.3951 133.9101  1.00257102 43628
BEIDOU-2 G5 (C05)       
1 38091U 12008A   23316.49537317  .00000081  00000+0  00000+0 0  9993
2 38091   1.8746  69.4542 0007206 192.3462  26.5943  1.00273289 42862
BEIDOU-2 M3 (C11)       
1 38250U 12018A   23315.39179989 -.00000057  00000+0  00000+0 0  9990
2 38250  56.4741 336.6152 0025390 260.2824  99.4827  1.86231277 78276
BEIDOU-2 M4 (C12)       
1 38251U 12018B   23314.24904599 -.00000059  00000+0  00000+0 0  9999
2 38251  56.3845 335.9413 0016294 261.9568  97.9108  1.86232037 78257
BEIDOU-2 M6 (C14)       
1 38775U 12050B   23314.49564210  .00000029  00000+0  00000+0 0  9991
2 38775  55.7439  94.5169 0010551 336.7407  23.1974  1.86231156 75620
BEIDOU-2 G6 (C02)       
1 38953U 12059A   23316.50042049 -.00000151  00000+0  00000+0 0  9990
2 38953   2.0020  81.6668 0007448 294.2793 299.6360  1.00272586 40402
BEIDOU-3S IGSO-1S (C31) 
1 40549U 15019A   23315.35315264 -.00000151  00000+0  00000+0 0  9997
2 40549  50.9803 306.7704 0036823 195.8980 126.6176  1.00297065 31551
BEIDOU-3S M2S (C57)     
1 40748U 15037A   23314.45116356 -.00000059  00000+0  00000+0 0  9996
2 40748  55.6230 334.4924 0012936 252.0598 107.8491  1.86233202 56432
BEIDOU-3S M1S (C58)     
1 40749U 15037B   23315.25829912 -.00000057  00000+0  00000+0 0  9993
2 40749  55.6257 334.4515 0005866 301.0927  58.8988  1.86233001 56458
BEIDOU-3S IGSO-2S (C56) 
1 40938U 15053A   23316.34077111 -.00000154  00000+0  00000+0 0  9996
2 40938  50.7054 269.9457 0046603 194.6466 165.5117  1.00267250 29857
BEIDOU-2 IGSO-6 (C13)   
1 41434U 16021A   23316.24196331 -.00000173  00000+0  00000+0 0  9990
2 41434  58.8534  47.5676 0049645 220.9200 326.1264  1.00269420 27972
BEIDOU-2 G7 (C03)       
1 41586U 16037A   23316.52549378 -.00000330  00000+0  00000+0 0  9994
2 41586   1.3892  65.2565 0008798 316.5662 329.3576  1.00271595 27283
BEIDOU-3 M1 (C19)       
1 43001U 17069A   23316.40969671  .00000024  00000+0  00000+0 0  9992
2 43001  55.8969  94.5212 0007566 291.8300  68.0679  1.86231442 40957
BEIDOU-3 M2 (C20)       
1 43002U 17069B   23315.27266205  .00000027  00000+0  00000+0 0  9993
2 43002  55.8952  94.5948 0005274 324.7468  35.2011  1.86231110 40926
BEIDOU-3 M7 (C27)       
1 43107U 18003A   23316.09714618 -.00000058  00000+0  00000+0 0  9990
2 43107  55.0787 335.1230 0002529  58.5648 301.5079  1.86232488 39694
BEIDOU-3 M8 (C28)       
1 43108U 18003B   23316.03581350 -.00000058  00000+0  00000+0 0  9990
2 43108  55.0718 335.1118 0004982 257.8551 102.1370  1.86230970 39701
BEIDOU-3 M4 (C22)       
1 43207U 18018A   23315.94077497  .00000025  00000+0  00000+0 0  9990
2 43207  55.8551  94.6335 0003419  13.5207 346.4685  1.86231384 39084
BEIDOU-3 M3 (C21)       
1 43208U 18018B   23315.47048218  .00000026  00000+0  00000+0 0  9999
2 43208  55.8541  94.6536 0005162 306.9209  53.0138  1.86231470 39074
BEIDOU-3 M9 (C29)       
1 43245U 18029A   23312.47140548 -.00000065  00000+0  00000+0 0  9992
2 43245  54.9725 332.9758 0002045 256.7061 103.3190  1.86232871 38171
BEIDOU-3 M10 (C30)      
1 43246U 18029B   23316.15997482 -.00000056  00000+0  00000+0 0  9999
2 43246  54.9678 332.8772 0003692 338.5717  21.4575  1.86232887 38220
BEIDOU-2 IGSO-7 (C16)   
1 43539U 18057A   23316.52549378 -.00000033  00000+0  00000+0 0  9998
2 43539  55.1181 171.2522 0063459 229.3430 313.1089  1.00262588 19644
BEIDOU-3 M5 (C23)       
1 43581U 18062A   23315.84328036  .00000038  00000+0  00000+0 0  9995
2 43581  54.1620 214.5781 0003043 310.0405  50.0025  1.86232020 35972
BEIDOU-3 M6 (C24)       
1 43582U 18062B   23316.24692739  .00000042  00000+0  00000+0 0  9990
2 43582  54.1617 214.5540 0006472  23.0246 337.0769  1.86229931 35986
BEIDOU-3 M12 (C26)      
1 43602U 18067A   23316.18260959  .00000044  00000+0  00000+0 0  9998
2 43602  54.2500 213.2173 0007885  23.1948 336.9155  1.86231529 35464
BEIDOU-3 M11 (C25)      
1 43603U 18067B   23315.77949061  .00000039  00000+0  00000+0 0  9995
2 43603  54.2471 213.1965 0004701  15.7723 344.3143  1.86231507 35480
BEIDOU-3 M13 (C32)      
1 43622U 18072A   23315.20155380  .00000026  00000+0  00000+0 0  9999
2 43622  55.8244  94.1957 0004444 282.8518  77.0814  1.86231301 34988
BEIDOU-3 M14 (C33)      
1 43623U 18072B   23314.53005947  .00000028  00000+0  00000+0 0  9990
2 43623  55.8257  94.2109 0002033 331.0178  28.9565  1.86231343 34966
BEIDOU-3 M16 (C35)      
1 43647U 18078A   23315.76781461 -.00000057  00000+0  00000+0 0  9993
2 43647  54.8668 332.9789 0006441 358.8273   1.2167  1.86232340 34491
BEIDOU-3 M15 (C34)      
1 43648U 18078B   23316.43383398 -.00000056  00000+0  00000+0 0  9995
2 43648  54.8622 332.9596 0003381 357.8875   2.1550  1.86232245 34529
BEIDOU-3 G1 (C59)       
1 43683U 18085A   23316.56481253 -.00000252  00000+0  00000+0 0  9993
2 43683   1.6690 119.9069 0002301  10.8654 264.0082  1.00276665 18557
BEIDOU-3 M17 (C36)      
1 43706U 18093A   23316.04467448  .00000040  00000+0  00000+0 0  9995
2 43706  54.2446 214.4936 0008068 290.4692  69.5156  1.86232105 33882
BEIDOU-3 M18 (C37)      
1 43707U 18093B   23315.91143031  .00000039  00000+0  00000+0 0  9998
2 43707  54.2454 214.4898 0007275 323.5282  36.4927  1.86229950 33873
BEIDOU-3 IGSO-1 (C38)   
1 44204U 19023A   23313.58973750 -.00000226  00000+0  00000+0 0  9994
2 44204  57.3179  47.5485 0024448 199.6446 132.4851  1.00263023 16808
BEIDOU-2 G8 (C01)       
1 44231U 19027A   23316.59533560 -.00000223  00000+0  00000+0 0  9990
2 44231   1.4122  71.3255 0004691 164.0613 174.9846  1.00269431 16574
BEIDOU-3 IGSO-2 (C39)   
1 44337U 19035A   23316.50668612 -.00000033  00000+0  00000+0 0  9993
2 44337  55.1540 167.1828 0032905 194.1554 349.7290  1.00253228 16165
BEIDOU-3 M24 (C46)      
1 44542U 19061A   23315.98258599  .00000039  00000+0  00000+0 0  9995
2 44542  54.4722 214.7387 0008727 359.1321   0.9368  1.86231564 28131
BEIDOU-3 M23 (C45)      
1 44543U 19061B   23316.38233064  .00000044  00000+0  00000+0 0  9997
2 44543  54.4703 214.6947 0005673 351.8486 188.2054  1.86231950 28142
BEIDOU-3 IGSO-3 (C40)   
1 44709U 19073A   23316.33556086 -.00000192  00000+0  00000+0 0  9996
2 44709  56.4225 291.0247 0034400 190.7128 169.1513  1.00261015 14955
BEIDOU-3 M22 (C44)      
1 44793U 19078A   23316.36488352 -.00000057  00000+0  00000+0 0  9997
2 44793  54.7147 332.9170 0005302   4.2870 355.7615  1.86232179 26990
BEIDOU-3 M21 (C43)      
1 44794U 19078B   23314.34748784 -.00000061  00000+0  00000+0 0  9997
2 44794  54.6897 332.9677 0003473 348.5484  11.4912  1.86232721 26962
BEIDOU-3 M19 (C41)      
1 44864U 19090A   23316.23652965  .00000024  00000+0  00000+0 0  9992
2 44864  55.7594  94.3446 0015875 272.1802 107.9848  1.86231710 26588
BEIDOU-3 M20 (C42)      
1 44865U 19090B   23315.28640271  .00000026  00000+0  00000+0 0  9996
2 44865  55.7606  94.4093 0013364 286.4274 266.4988  1.86231715 26541
BEIDOU-3 G2 (C60)       
1 45344U 20017A   23316.49963729 -.00000118  00000+0  00000+0 0  9993
2 45344   2.0965  19.7607 0003140 208.7205  82.8082  1.00271187 13757
BEIDOU-3 G3 (C61)       
1 45807U 20040A   23316.50572888 -.00000330  00000+0  00000+0 0  9993
2 45807   0.5820 359.4179 0009809 309.9473  34.6023  1.00266336 12569
BEIDOU-3 G4             
1 56564U 23066A   23316.61180823 -.00000089  00000+0  00000+0 0  9993
2 56564   2.6722 288.5572 0005040 230.1359 273.0291  1.00270808  1894
